*******************************************************************************
Ephemeris / PORT_LOGIN Sun Nov 27 10:14:59 2011 Pasadena, USA    / Horizons    
*******************************************************************************
Target body name: Puck (715)                      {source: URA086}
Center body name: Solar System Barycenter (0)     {source: DE405}
Center-site name: BODY CENTER
*******************************************************************************
Start time      : A.D. 2001-Jan-01 10:00:00.0000 CT 
Stop  time      : A.D. 2001-Jan-02 00:00:00.0000 CT 
Step-size       : 60 minutes
*******************************************************************************
Center geodetic : 0.00000000,0.00000000,0.0000000 {E-lon(deg),Lat(deg),Alt(km)}
Center cylindric: 0.00000000,0.00000000,0.0000000 {E-lon(deg),Dxy(km),Dz(km)}
Center radii    : (undefined)                                                  
Output units    : AU-D                                                         
Output format   : 03
Reference frame : ICRF/J2000.0                                                 
Output type     : GEOMETRIC cartesian states
Coordinate systm: Earth Mean Equator and Equinox of Reference Epoch            
*******************************************************************************
JDCT 
   X     Y     Z
   VX    VY    VZ
   LT    RG    RR
*******************************************************************************
$$SOE
2451910.916666667 = A.D. 2001-Jan-01 10:00:00.0000 (CT)
   1.536919595594331E+01 -1.157988146237044E+01 -5.288947732727904E+00
   3.653932404460351E-03  1.133001760712447E-03  5.458910374040555E-03
   1.152615791775967E-01  1.995692378935848E+01  7.098331161550154E-04
2451910.958333333 = A.D. 2001-Jan-01 11:00:00.0000 (CT)
   1.536937905661259E+01 -1.157983723199875E+01 -5.288733844433779E+00
   5.097164995283435E-03  1.020790150885013E-03  4.728409798296031E-03
   1.152619179837814E-01  1.995698245183087E+01  2.080092834722277E-03
2451911.000000000 = A.D. 2001-Jan-01 12:00:00.0000 (CT)
   1.536961645328677E+01 -1.157979378873547E+01 -5.288559596804902E+00
   6.234424480843677E-03  1.095599660383242E-03  3.574911478741285E-03
   1.152625616238059E-01  1.995709389464651E+01  3.218292345856332E-03
2451911.041666667 = A.D. 2001-Jan-01 13:00:00.0000 (CT)
   1.536989246961632E+01 -1.157974344578554E+01 -5.288439952780965E+00
   6.932609494163341E-03  1.348712859884191E-03  2.133284952481441E-03
   1.152634375104821E-01  1.995724554972333E+01  3.991230352295590E-03
2451911.083333333 = A.D. 2001-Jan-01 14:00:00.0000 (CT)
   1.537018690850571E+01 -1.157967932236659E+01 -5.288383489251991E+00
   7.109974235175969E-03  1.750538659069889E-03  5.721665595020480E-04
   1.152644458737394E-01  1.995742014240913E+01  4.308428634359920E-03
2451911.125000000 = A.D. 2001-Jan-01 15:00:00.0000 (CT)
   1.537047741539134E+01 -1.157959614938955E+01 -5.288391391485951E+00
   6.745733145917146E-03  2.254070383777207E-03 -9.257877189914591E-04
   1.152654714353072E-01  1.995759771289008E+01  4.132754012940297E-03
2451911.166666667 = A.D. 2001-Jan-01 16:00:00.0000 (CT)
   1.537074209520966E+01 -1.157949088651199E+01 -5.288457313558940E+00
   5.882510567236220E-03  2.800392219879908E-03 -2.185310117940368E-03
   1.152663969042853E-01  1.995775795287636E+01  3.484778002238853E-03
2451911.208333333 = A.D. 2001-Jan-01 17:00:00.0000 (CT)
   1.537096207569594E+01 -1.157936307798922E+01 -5.288568121548393E+00
   4.621340242173762E-03  3.325585721858196E-03 -3.059063970193298E-03
   1.152671167084026E-01  1.995788258309585E+01  2.440356539463819E-03
2451911.250000000 = A.D. 2001-Jan-01 18:00:00.0000 (CT)
   1.537112371590243E+01 -1.157921490555715E+01 -5.288705432064695E+00
   3.109806795554944E-03  3.768220956395106E-03 -3.444897563120732E-03
   1.152675493480800E-01  1.995795749233387E+01  1.121719654172449E-03
2451911.291666667 = A.D. 2001-Jan-01 19:00:00.0000 (CT)
   1.537122020090767E+01 -1.157905093234461E+01 -5.288847764971010E+00
   1.524735973116771E-03  4.076548632611963E-03 -3.297779953239956E-03
   1.152676469246211E-01  1.995797438718824E+01 -3.168686158436443E-04
2451911.333333333 = A.D. 2001-Jan-01 20:00:00.0000 (CT)
   1.537125233641368E+01 -1.157887756819613E+01 -5.288973057163996E+00
   5.148141887758193E-05  4.214548172047192E-03 -2.635027220122851E-03
   1.152674007292940E-01  1.995793175978877E+01 -1.707181678299937E-03
2451911.375000000 = A.D. 2001-Jan-01 21:00:00.0000 (CT)
   1.537122845135971E+01 -1.157870231941949E+01 -5.289061242547067E+00
  -1.137753456641666E-03  4.166125921680724E-03 -1.534225935558106E-03
   1.152668422452518E-01  1.995783506127441E+01 -2.886705149419736E-03
2451911.416666667 = A.D. 2001-Jan-01 22:00:00.0000 (CT)
   1.537116342138031E+01 -1.157853291101418E+01 -5.289096596485265E+00
  -1.904021806803061E-03  3.936978840525142E-03 -1.241201381064128E-04
   1.152660394526838E-01  1.995769606205011E+01 -3.717612784288139E-03
2451911.458333333 = A.D. 2001-Jan-01 23:00:00.0000 (CT)
   1.537107692848121E+01 -1.157837638403400E+01 -5.289069571479032E+00
  -2.157830433101756E-03  3.553913955577630E-03  1.430454179455641E-03
   1.152650888754187E-01  1.995753147469869E+01 -4.102837205980854E-03
2451911.500000000 = A.D. 2001-Jan-02 00:00:00.0000 (CT)
   1.537099116082514E+01 -1.157823827332605E+01 -5.288977910794524E+00
  -1.869556548246175E-03  3.061709643111548E-03  2.947820427143942E-03
   1.152641043009713E-01  1.995736100091766E+01 -3.997377111629400E-03
$$EOE
*******************************************************************************
Coordinate system description:

  Earth Mean Equator and Equinox of Reference Epoch

    Reference epoch: J2000.0
    xy-plane: plane of the Earth's mean equator at the reference epoch
    x-axis  : out along ascending node of instantaneous plane of the Earth's
              orbit and the Earth's mean equator at the reference epoch
    z-axis  : along the Earth mean north pole at the reference epoch

Symbol meaning [1 AU=149597870.691 km, 1 day=86400.0 s]:

    JDCT     Epoch Julian Date, Coordinate Time
      X      x-component of position vector (AU)                               
      Y      y-component of position vector (AU)                               
      Z      z-component of position vector (AU)                               
      VX     x-component of velocity vector (AU/day)                           
      VY     y-component of velocity vector (AU/day)                           
      VZ     z-component of velocity vector (AU/day)                           
      LT     One-way down-leg Newtonian light-time (day)                       
      RG     Range; distance from coordinate center (AU)                       
      RR     Range-rate; radial velocity wrt coord. center (AU/day)            

Geometric states/elements have no aberration corrections applied.

 Computations by ...
     Solar System Dynamics Group, Horizons On-Line Ephemeris System
     4800 Oak Grove Drive, Jet Propulsion Laboratory
     Pasadena, CA  91109   USA
     Information: http://ssd.jpl.nasa.gov/
     Connect    : telnet://ssd.jpl.nasa.gov:6775  (via browser)
                  telnet ssd.jpl.nasa.gov 6775    (via command-line)
     Author     : Jon.Giorgini@jpl.nasa.gov
*******************************************************************************
